METEOR-M 1              
1 35865U 09049A   21322.98506863  .00000009  00000-0  23003-4 0  9995
2 35865  98.5000 295.5974 0003312 108.5343 251.6196 14.22291845631777
